{
    "links": {
        "self": "http://www.neowsapp.com/rest/v1/neo/3748490?api_key=iIulBulltgU6a56xZRHN4H3l9WmuAYTsLGpBGhQ2"
    },
    "id": "3748490",
    "neo_reference_id": "3748490",
    "name": "(2016 FB14)",
    "designation": "2016 FB14",
    "nasa_jpl_url": "http://ssd.jpl.nasa.gov/sbdb.cgi?sstr=3748490",
    "absolute_magnitude_h": 25.5,
    "estimated_diameter": {
        "kilometers": {
            "estimated_diameter_min": 0.0211132445,
            "estimated_diameter_max": 0.0472106499
        },
        "meters": {
            "estimated_diameter_min": 21.113244479,
            "estimated_diameter_max": 47.2106498806
        },
        "miles": {
            "estimated_diameter_min": 0.0131191578,
            "estimated_diameter_max": 0.0293353287
        },
        "feet": {
            "estimated_diameter_min": 69.2691770164,
            "estimated_diameter_max": 154.8905885541
        }
    },
    "is_potentially_hazardous_asteroid": false,
    "close_approach_data": [
        {
            "close_approach_date": "2016-03-16",
            "close_approach_date_full": "2016-Mar-16 18:10",
            "epoch_date_close_approach": 1458151800000,
            "relative_velocity": {
                "kilometers_per_second": "5.4055158083",
                "kilometers_per_hour": "19459.8569099957",
                "miles_per_hour": "12091.5983116581"
            },
            "miss_distance": {
                "astronomical": "0.2318931286",
                "lunar": "90.2064270254",
                "kilometers": "34690718.106196082",
                "miles": "21555812.6748746516"
            },
            "orbiting_body": "Earth"
        }
    ],
    "orbital_data": {
        "orbit_id": "3",
        "orbit_determination_date": "2017-04-06 08:27:04",
        "first_observation_date": "2016-03-28",
        "last_observation_date": "2016-04-01",
        "data_arc_in_days": 4,
        "observations_used": 11,
        "orbit_uncertainty": "9",
        "minimum_orbit_intersection": ".231971",
        "jupiter_tisserand_invariant": "3.796",
        "epoch_osculation": "2457477.5",
        "eccentricity": ".3693056680253921",
        "semi_major_axis": "1.944847550189254",
        "inclination": "9.686284146896867",
        "ascending_node_longitude": "355.0644770900774",
        "orbital_period": "990.6648936926422",
        "perihelion_distance": "1.226604326459064",
        "perihelion_argument": "179.1714474845319",
        "aphelion_distance": "2.663090773919443",
        "perihelion_time": "2457462.039118277524",
        "mean_anomaly": "5.618365458924003",
        "mean_motion": ".3633923058059746",
        "equinox": "J2000",
        "orbit_class": {
            "orbit_class_type": "AMO",
            "orbit_class_description": "Near-Earth asteroid orbits similar to that of 1221 Amor",
            "orbit_class_range": "1.017 AU < q (perihelion) < 1.3 AU"
        }
    },
    "is_sentry_object": false
}